CCSDS_OMM_VERS = 2.0
CREATION_DATE  = 
ORIGINATOR     = 

OBJECT_NAME    = SZ-21 MODULE
OBJECT_ID      = 2025-246C
CENTER_NAME    = EARTH
REF_FRAME      = TEME
TIME_SYSTEM    = UTC
MEAN_ELEMENT_THEORY = SGP/SGP4

EPOCH          = 2025-12-03T07:59:41.917920
MEAN_MOTION    = 15.61790567
ECCENTRICITY   = .0005832
INCLINATION    = 41.4771
RA_OF_ASC_NODE = 73.3983
ARG_OF_PERICENTER = 205.8085
MEAN_ANOMALY   = 154.2464

EPHEMERIS_TYPE = 0
CLASSIFICATION_TYPE = U
NORAD_CAT_ID   = 66515
ELEMENT_SET_NO = 999
REV_AT_EPOCH   = 297
BSTAR          = .36812E-3
MEAN_MOTION_DOT = .3262E-3
MEAN_MOTION_DDOT = 0

CCSDS_OMM_VERS = 2.0
CREATION_DATE  = 
ORIGINATOR     = 

OBJECT_NAME    = SHENZHOU-22
OBJECT_ID      = 2025-272A
CENTER_NAME    = EARTH
REF_FRAME      = TEME
TIME_SYSTEM    = UTC
MEAN_ELEMENT_THEORY = SGP/SGP4

EPOCH          = 2025-12-03T08:40:01.753824
MEAN_MOTION    = 15.58580261
ECCENTRICITY   = .00100709
INCLINATION    = 41.4677
RA_OF_ASC_NODE = 73.6192
ARG_OF_PERICENTER = 319.5464
MEAN_ANOMALY   = 40.4624

EPHEMERIS_TYPE = 0
CLASSIFICATION_TYPE = U
NORAD_CAT_ID   = 66645
ELEMENT_SET_NO = 999
REV_AT_EPOCH   = 26257
BSTAR          = .34171532E-3
MEAN_MOTION_DOT = .26743E-3
MEAN_MOTION_DDOT = 0

CCSDS_OMM_VERS = 2.0
CREATION_DATE  = 
ORIGINATOR     = 

OBJECT_NAME    = CZ-2F R/B
OBJECT_ID      = 2025-272B
CENTER_NAME    = EARTH
REF_FRAME      = TEME
TIME_SYSTEM    = UTC
MEAN_ELEMENT_THEORY = SGP/SGP4

EPOCH          = 2025-11-26T11:17:54.506400
MEAN_MOTION    = 16.01945612
ECCENTRICITY   = .01210796
INCLINATION    = 41.4431
RA_OF_ASC_NODE = 114.9009
ARG_OF_PERICENTER = 133.7676
MEAN_ANOMALY   = 227.3272

EPHEMERIS_TYPE = 0
CLASSIFICATION_TYPE = U
NORAD_CAT_ID   = 66646
ELEMENT_SET_NO = 999
REV_AT_EPOCH   = 21
BSTAR          = .29319366E-3
MEAN_MOTION_DOT = .449059E-2
MEAN_MOTION_DDOT = .7567612E-5

CCSDS_OMM_VERS = 2.0
CREATION_DATE  = 
ORIGINATOR     = 

OBJECT_NAME    = SOYUZ-MS 28
OBJECT_ID      = 2025-275A
CENTER_NAME    = EARTH
REF_FRAME      = TEME
TIME_SYSTEM    = UTC
MEAN_ELEMENT_THEORY = SGP/SGP4

EPOCH          = 2025-12-03T10:43:27.497856
MEAN_MOTION    = 15.49271748
ECCENTRICITY   = .0003633
INCLINATION    = 51.6306
RA_OF_ASC_NODE = 188.4862
ARG_OF_PERICENTER = 200.0092
MEAN_ANOMALY   = 160.0755

EPHEMERIS_TYPE = 0
CLASSIFICATION_TYPE = U
NORAD_CAT_ID   = 66664
ELEMENT_SET_NO = 999
REV_AT_EPOCH   = 100
BSTAR          = .21633E-3
MEAN_MOTION_DOT = .116E-3
MEAN_MOTION_DDOT = 0

